[
  {
    "OBJECT_NAME": "STARLINK-11142 [DTC]",
    "OBJECT_ID": "24107N",
    "EPOCH": "2025-11-11T03:49:25.230720",
    "MEAN_MOTION": 15.69706901,
    "ECCENTRICITY": 6.6e-06,
    "INCLINATION": 53.1628,
    "RA_OF_ASC_NODE": 115.2654,
    "ARG_OF_PERICENTER": 76.4995,
    "MEAN_ANOMALY": 283.6031,
    "EPHEMERIS_TYPE": 0,
    "CLASSIFICATION_TYPE": "U",
    "NORAD_CAT_ID": 59957,
    "ELEMENT_SET_NO": 999,
    "REV_AT_EPOCH": 8354,
    "BSTAR": 4.1042000000000004e-05,
    "MEAN_MOTION_DOT": 4.387e-05,
    "MEAN_MOTION_DDOT": 0.0,
    "TLE_LINE1": "1 59957U 24107N   25315.15931980  .00004387  00000+0  41042-4 0  9997",
    "TLE_LINE2": "2 59957  53.1628 115.2654 0000066  76.4995 283.6031 15.69706901 83545",
    "COMMENT": "Grouped by shell and plane from TLE"
  },
  {
    "OBJECT_NAME": "STARLINK-11654 [DTC]",
    "OBJECT_ID": "25053A",
    "EPOCH": "2025-11-10T10:21:25.260768",
    "MEAN_MOTION": 15.70990582,
    "ECCENTRICITY": 0.0002557,
    "INCLINATION": 43.0008,
    "RA_OF_ASC_NODE": 111.0461,
    "ARG_OF_PERICENTER": 266.2522,
    "MEAN_ANOMALY": 93.8053,
    "EPHEMERIS_TYPE": 0,
    "CLASSIFICATION_TYPE": "U",
    "NORAD_CAT_ID": 63265,
    "ELEMENT_SET_NO": 999,
    "REV_AT_EPOCH": 3891,
    "BSTAR": 0.0023996,
    "MEAN_MOTION_DOT": 0.00321705,
    "MEAN_MOTION_DDOT": 0.0,
    "TLE_LINE1": "1 63265U 25053A   25314.43154237  .00321705  00000+0  23996-2 0  9999",
    "TLE_LINE2": "2 63265  43.0008 111.0461 0002557 266.2522  93.8053 15.70990582 38912",
    "COMMENT": "Grouped by shell and plane from TLE"
  },
  {
    "OBJECT_NAME": "STARLINK-11619 [DTC]",
    "OBJECT_ID": "25053H",
    "EPOCH": "2025-11-10T12:00:37.765440",
    "MEAN_MOTION": 15.70851807,
    "ECCENTRICITY": 0.0004799,
    "INCLINATION": 43.0001,
    "RA_OF_ASC_NODE": 110.7057,
    "ARG_OF_PERICENTER": 300.077,
    "MEAN_ANOMALY": 59.9622,
    "EPHEMERIS_TYPE": 0,
    "CLASSIFICATION_TYPE": "U",
    "NORAD_CAT_ID": 63272,
    "ELEMENT_SET_NO": 999,
    "REV_AT_EPOCH": 3892,
    "BSTAR": 0.0022681000000000003,
    "MEAN_MOTION_DOT": 0.00301631,
    "MEAN_MOTION_DDOT": 0.0,
    "TLE_LINE1": "1 63272U 25053H   25314.50043710  .00301631  00000+0  22681-2 0  9994",
    "TLE_LINE2": "2 63272  43.0001 110.7057 0004799 300.0770  59.9622 15.70851807 38924",
    "COMMENT": "Grouped by shell and plane from TLE"
  },
  {
    "OBJECT_NAME": "STARLINK-35529",
    "OBJECT_ID": "25245AB",
    "EPOCH": "2025-11-11T06:00:02.000160",
    "MEAN_MOTION": 15.79312098,
    "ECCENTRICITY": 8.27e-05,
    "INCLINATION": 53.1526,
    "RA_OF_ASC_NODE": 119.994,
    "ARG_OF_PERICENTER": 77.965,
    "MEAN_ANOMALY": 127.1918,
    "EPHEMERIS_TYPE": 0,
    "CLASSIFICATION_TYPE": "U",
    "NORAD_CAT_ID": 66259,
    "ELEMENT_SET_NO": 999,
    "REV_AT_EPOCH": 304,
    "BSTAR": 0.0,
    "MEAN_MOTION_DOT": -0.01485094,
    "MEAN_MOTION_DDOT": 0.0,
    "TLE_LINE1": "1 66259U 25245AB  25315.25002315 -.01485094  00000+0 -91560-2 0  9995",
    "TLE_LINE2": "2 66259  53.1526 119.9940 0000827  77.9650 127.1918 15.79312098  3047",
    "COMMENT": "Grouped by shell and plane from TLE"
  },
  {
    "OBJECT_NAME": "STARLINK-35420",
    "OBJECT_ID": "25245AC",
    "EPOCH": "2025-11-11T06:00:02.000160",
    "MEAN_MOTION": 15.79335803,
    "ECCENTRICITY": 0.0001017,
    "INCLINATION": 53.1523,
    "RA_OF_ASC_NODE": 119.9984,
    "ARG_OF_PERICENTER": 68.6204,
    "MEAN_ANOMALY": 134.3596,
    "EPHEMERIS_TYPE": 0,
    "CLASSIFICATION_TYPE": "U",
    "NORAD_CAT_ID": 66260,
    "ELEMENT_SET_NO": 999,
    "REV_AT_EPOCH": 304,
    "BSTAR": 0.0,
    "MEAN_MOTION_DOT": -0.01473224,
    "MEAN_MOTION_DDOT": 0.0,
    "TLE_LINE1": "1 66260U 25245AC  25315.25002315 -.01473224  00000+0 -90623-2 0  9998",
    "TLE_LINE2": "2 66260  53.1523 119.9984 0001017  68.6204 134.3596 15.79335803  3049",
    "COMMENT": "Grouped by shell and plane from TLE"
  },
  {
    "OBJECT_NAME": "STARLINK-35536",
    "OBJECT_ID": "25245AD",
    "EPOCH": "2025-11-11T06:00:02.000160",
    "MEAN_MOTION": 15.79241534,
    "ECCENTRICITY": 8.11e-05,
    "INCLINATION": 53.1525,
    "RA_OF_ASC_NODE": 119.9889,
    "ARG_OF_PERICENTER": 79.2253,
    "MEAN_ANOMALY": 128.417,
    "EPHEMERIS_TYPE": 0,
    "CLASSIFICATION_TYPE": "U",
    "NORAD_CAT_ID": 66261,
    "ELEMENT_SET_NO": 999,
    "REV_AT_EPOCH": 304,
    "BSTAR": 0.0,
    "MEAN_MOTION_DOT": -0.014988,
    "MEAN_MOTION_DDOT": 0.0,
    "TLE_LINE1": "1 66261U 25245AD  25315.25002315 -.01498800  00000+0 -92821-2 0  9998",
    "TLE_LINE2": "2 66261  53.1525 119.9889 0000811  79.2253 128.4170 15.79241534  3048",
    "COMMENT": "Grouped by shell and plane from TLE"
  },
  {
    "OBJECT_NAME": "STARLINK-35487",
    "OBJECT_ID": "25245AE",
    "EPOCH": "2025-11-11T06:00:02.000160",
    "MEAN_MOTION": 15.7921278,
    "ECCENTRICITY": 8.28e-05,
    "INCLINATION": 53.1526,
    "RA_OF_ASC_NODE": 119.984,
    "ARG_OF_PERICENTER": 70.1909,
    "MEAN_ANOMALY": 139.6617,
    "EPHEMERIS_TYPE": 0,
    "CLASSIFICATION_TYPE": "U",
    "NORAD_CAT_ID": 66262,
    "ELEMENT_SET_NO": 999,
    "REV_AT_EPOCH": 299,
    "BSTAR": 0.0,
    "MEAN_MOTION_DOT": -0.01510957,
    "MEAN_MOTION_DDOT": 0.0,
    "TLE_LINE1": "1 66262U 25245AE  25315.25002315 -.01510957  00000+0 -93801-2 0  9996",
    "TLE_LINE2": "2 66262  53.1526 119.9840 0000828  70.1909 139.6617 15.79212780  2997",
    "COMMENT": "Grouped by shell and plane from TLE"
  }
]